*******************************************************************************
Ephemeris / WWW_USER Mon Mar 10 08:39:53 2025 Pasadena, USA      / Horizons    
*******************************************************************************
Target body name: ASASSN (C/2017 O1)              {source: JPL#21}
Center body name: Earth (399)                     {source: DE441}
Center-site name: Mauna Kea
*******************************************************************************
Start time      : A.D. 2018-Nov-28 03:51:00.0000 UT      
Stop  time      : A.D. 2018-Nov-28 16:28:00.0000 UT      
Step-size       : 1 minutes
*******************************************************************************
Target pole/equ : undefined
Target radii    : undefined                                                    
Center geodetic : 204.5278, 19.8260847, 4.21024   {E-lon(deg),Lat(deg),Alt(km)}
Center cylindric: 204.5278, 6006.35451, 2151.0229 {E-lon(deg),Dxy(km),Dz(km)}
Center pole/equ : ITRF93                          {East-longitude positive}
Center radii    : 6378.137, 6378.137, 6356.752 km {Equator_a, b, pole_c}       
Target primary  : Sun
Vis. interferer : MOON (R_eq= 1737.400) km        {source: DE441}
Rel. light bend : Sun                             {source: DE441}
Rel. lght bnd GM: 1.3271E+11 km^3/s^2                                          
Small-body perts: Yes                             {source: SB441-N16}
Atmos refraction: NO (AIRLESS)
RA format       : HMS
Time format     : CAL 
Calendar mode   : Mixed Julian/Gregorian
RTS-only print  : NO       
EOP file        : eop.250307.p250603                                           
EOP coverage    : DATA-BASED 1962-JAN-20 TO 2025-MAR-07. PREDICTS-> 2025-JUN-02
Units conversion: 1 au= 149597870.700 km, c= 299792.458 km/s, 1 day= 86400.0 s 
Table cut-offs 1: Elevation (-90.0deg=NO ),Airmass (>38.000=NO), Daylight (YES)
Table cut-offs 2: Solar elongation (  0.0,180.0=NO ),Local Hour Angle( 0.0=NO )
Table cut-offs 3: RA/DEC angular rate (     0.0=NO )                           
*******************************************************************************
Initial IAU76/J2000 heliocentric ecliptic osculating elements (au, days, deg.):
  EPOCH=  2458039.5 ! 2017-Oct-13.0000000 (TDB)    RMSW= n.a.                  
   EC= .9964254882304144   QR= 1.498687032290766   TP= 2458041.2851755521      
   OM= 25.80948799039273   W= 20.90785287564418    IN= 39.84841297991522       
  Equivalent ICRF heliocentric cartesian coordinates (au, au/d):
   X= 1.103880574170232E+00  Y= 7.544591652134763E-01  Z= 6.774428678789283E-01
  VX=-1.240653547490291E-02 VY= 4.322571932715848E-03 VZ= 1.488380440184248E-02
Comet physical (GM= km^3/s^2; RAD= km):                                        
   GM= n.a.                RAD= n.a.                                           
   M1=  12.4     M2=  n.a.     k1=  8.75   k2= n.a.     PHCOF= n.a.            
*******************************************************************************
 Date__(UT)__HR:MN     R.A._________(ICRF)_________DEC
******************************************************
$$SOE
 2018-Nov-28 14:16  m  12 41 59.447148 +23 32 36.32918
 2018-Nov-28 14:17  m  12 41 59.467950 +23 32 36.30738
 2018-Nov-28 14:18  m  12 41 59.488749 +23 32 36.28558
 2018-Nov-28 14:19  m  12 41 59.509546 +23 32 36.26378
 2018-Nov-28 14:20  m  12 41 59.530341 +23 32 36.24198
 2018-Nov-28 14:21  m  12 41 59.551133 +23 32 36.22018
 2018-Nov-28 14:22  m  12 41 59.571924 +23 32 36.19837
 2018-Nov-28 14:23  m  12 41 59.592712 +23 32 36.17656
 2018-Nov-28 14:24  m  12 41 59.613497 +23 32 36.15475
 2018-Nov-28 14:25  m  12 41 59.634281 +23 32 36.13294
 2018-Nov-28 14:26  m  12 41 59.655062 +23 32 36.11112
 2018-Nov-28 14:27  m  12 41 59.675841 +23 32 36.08930
 2018-Nov-28 14:28  m  12 41 59.696618 +23 32 36.06748
 2018-Nov-28 14:29  m  12 41 59.717393 +23 32 36.04566
 2018-Nov-28 14:30  m  12 41 59.738165 +23 32 36.02383
 2018-Nov-28 14:31  m  12 41 59.758935 +23 32 36.00200
 2018-Nov-28 14:32  m  12 41 59.779703 +23 32 35.98017
 2018-Nov-28 14:33  m  12 41 59.800469 +23 32 35.95833
 2018-Nov-28 14:34  m  12 41 59.821233 +23 32 35.93649
 2018-Nov-28 14:35  m  12 41 59.841994 +23 32 35.91465
 2018-Nov-28 14:36  m  12 41 59.862754 +23 32 35.89281
 2018-Nov-28 14:37  m  12 41 59.883511 +23 32 35.87096
 2018-Nov-28 14:38  m  12 41 59.904266 +23 32 35.84911
 2018-Nov-28 14:39  m  12 41 59.925018 +23 32 35.82725
 2018-Nov-28 14:40  m  12 41 59.945769 +23 32 35.80540
 2018-Nov-28 14:41  m  12 41 59.966517 +23 32 35.78354
 2018-Nov-28 14:42  m  12 41 59.987264 +23 32 35.76167
 2018-Nov-28 14:43  m  12 42 00.008008 +23 32 35.73981
 2018-Nov-28 14:44  m  12 42 00.028750 +23 32 35.71794
 2018-Nov-28 14:45  m  12 42 00.049489 +23 32 35.69606
 2018-Nov-28 14:46  m  12 42 00.070227 +23 32 35.67419
 2018-Nov-28 14:47  m  12 42 00.090963 +23 32 35.65230
 2018-Nov-28 14:48  m  12 42 00.111696 +23 32 35.63042
 2018-Nov-28 14:49  m  12 42 00.132427 +23 32 35.60853
 2018-Nov-28 14:50  m  12 42 00.153156 +23 32 35.58664
 2018-Nov-28 14:51  m  12 42 00.173884 +23 32 35.56474
 2018-Nov-28 14:52  m  12 42 00.194609 +23 32 35.54285
 2018-Nov-28 14:53  m  12 42 00.215331 +23 32 35.52094
 2018-Nov-28 14:54  m  12 42 00.236052 +23 32 35.49904
 2018-Nov-28 14:55  m  12 42 00.256771 +23 32 35.47713
 2018-Nov-28 14:56  m  12 42 00.277487 +23 32 35.45521
 2018-Nov-28 14:57  m  12 42 00.298202 +23 32 35.43329
 2018-Nov-28 14:58  m  12 42 00.318914 +23 32 35.41137
 2018-Nov-28 14:59  m  12 42 00.339625 +23 32 35.38944
 2018-Nov-28 15:00  m  12 42 00.360333 +23 32 35.36751
 2018-Nov-28 15:01  m  12 42 00.381039 +23 32 35.34558
 2018-Nov-28 15:02  m  12 42 00.401744 +23 32 35.32364
 2018-Nov-28 15:03  m  12 42 00.422446 +23 32 35.30170
 2018-Nov-28 15:04  m  12 42 00.443146 +23 32 35.27975
 2018-Nov-28 15:05  m  12 42 00.463844 +23 32 35.25780
 2018-Nov-28 15:06  m  12 42 00.484540 +23 32 35.23584
 2018-Nov-28 15:07  m  12 42 00.505234 +23 32 35.21388
 2018-Nov-28 15:08  m  12 42 00.525926 +23 32 35.19192
 2018-Nov-28 15:09  m  12 42 00.546616 +23 32 35.16995
 2018-Nov-28 15:10  m  12 42 00.567304 +23 32 35.14797
 2018-Nov-28 15:11  m  12 42 00.587991 +23 32 35.12600
 2018-Nov-28 15:12  m  12 42 00.608675 +23 32 35.10401
 2018-Nov-28 15:13  m  12 42 00.629357 +23 32 35.08203
 2018-Nov-28 15:14  m  12 42 00.650037 +23 32 35.06003
 2018-Nov-28 15:15  m  12 42 00.670715 +23 32 35.03804
 2018-Nov-28 15:16  m  12 42 00.691391 +23 32 35.01604
 2018-Nov-28 15:17  m  12 42 00.712065 +23 32 34.99403
 2018-Nov-28 15:18  m  12 42 00.732738 +23 32 34.97202
 2018-Nov-28 15:19  m  12 42 00.753408 +23 32 34.95000
 2018-Nov-28 15:20  m  12 42 00.774076 +23 32 34.92798
 2018-Nov-28 15:21 Am  12 42 00.794743 +23 32 34.90595
 2018-Nov-28 15:22 Am  12 42 00.815407 +23 32 34.88392
 2018-Nov-28 15:23 Am  12 42 00.836070 +23 32 34.86189
 2018-Nov-28 15:24 Am  12 42 00.856730 +23 32 34.83985
 2018-Nov-28 15:25 Am  12 42 00.877389 +23 32 34.81780
 2018-Nov-28 15:26 Am  12 42 00.898046 +23 32 34.79575
 2018-Nov-28 15:27 Am  12 42 00.918701 +23 32 34.77369
 2018-Nov-28 15:28 Am  12 42 00.939354 +23 32 34.75163
 2018-Nov-28 15:29 Am  12 42 00.960005 +23 32 34.72957
 2018-Nov-28 15:30 Am  12 42 00.980654 +23 32 34.70749
 2018-Nov-28 15:31 Am  12 42 01.001302 +23 32 34.68542
 2018-Nov-28 15:32 Am  12 42 01.021947 +23 32 34.66333
 2018-Nov-28 15:33 Am  12 42 01.042591 +23 32 34.64125
 2018-Nov-28 15:34 Am  12 42 01.063233 +23 32 34.61915
 2018-Nov-28 15:35 Am  12 42 01.083873 +23 32 34.59705
 2018-Nov-28 15:36 Am  12 42 01.104511 +23 32 34.57495
 2018-Nov-28 15:37 Am  12 42 01.125148 +23 32 34.55284
 2018-Nov-28 15:38 Am  12 42 01.145782 +23 32 34.53072
 2018-Nov-28 15:39 Am  12 42 01.166415 +23 32 34.50860
 2018-Nov-28 15:40 Am  12 42 01.187046 +23 32 34.48647
 2018-Nov-28 15:41 Am  12 42 01.207675 +23 32 34.46434
 2018-Nov-28 15:42 Am  12 42 01.228302 +23 32 34.44220
 2018-Nov-28 15:43 Am  12 42 01.248928 +23 32 34.42006
 2018-Nov-28 15:44 Am  12 42 01.269551 +23 32 34.39791
 2018-Nov-28 15:45 Am  12 42 01.290173 +23 32 34.37575
 2018-Nov-28 15:46 Am  12 42 01.310794 +23 32 34.35359
 2018-Nov-28 15:47 Am  12 42 01.331412 +23 32 34.33142
 2018-Nov-28 15:48 Nm  12 42 01.352029 +23 32 34.30925
 2018-Nov-28 15:49 Nm  12 42 01.372644 +23 32 34.28707
 2018-Nov-28 15:50 Nm  12 42 01.393257 +23 32 34.26488
 2018-Nov-28 15:51 Nm  12 42 01.413868 +23 32 34.24269
 2018-Nov-28 15:52 Nm  12 42 01.434478 +23 32 34.22049
 2018-Nov-28 15:53 Nm  12 42 01.455086 +23 32 34.19829
 2018-Nov-28 15:54 Nm  12 42 01.475692 +23 32 34.17608
 2018-Nov-28 15:55 Nm  12 42 01.496297 +23 32 34.15386
 2018-Nov-28 15:56 Nm  12 42 01.516900 +23 32 34.13164
 2018-Nov-28 15:57 Nm  12 42 01.537501 +23 32 34.10941
 2018-Nov-28 15:58 Nm  12 42 01.558101 +23 32 34.08718
 2018-Nov-28 15:59 Nm  12 42 01.578699 +23 32 34.06494
 2018-Nov-28 16:00 Nm  12 42 01.599295 +23 32 34.04269
 2018-Nov-28 16:01 Nm  12 42 01.619889 +23 32 34.02043
 2018-Nov-28 16:02 Nm  12 42 01.640482 +23 32 33.99817
 2018-Nov-28 16:03 Nm  12 42 01.661074 +23 32 33.97591
 2018-Nov-28 16:04 Nm  12 42 01.681663 +23 32 33.95363
 2018-Nov-28 16:05 Nm  12 42 01.702251 +23 32 33.93135
 2018-Nov-28 16:06 Nm  12 42 01.722838 +23 32 33.90907
 2018-Nov-28 16:07 Nm  12 42 01.743422 +23 32 33.88677
 2018-Nov-28 16:08 Nm  12 42 01.764006 +23 32 33.86447
 2018-Nov-28 16:09 Nm  12 42 01.784587 +23 32 33.84217
 2018-Nov-28 16:10 Nm  12 42 01.805167 +23 32 33.81985
 2018-Nov-28 16:11 Nm  12 42 01.825746 +23 32 33.79753
 2018-Nov-28 16:12 Nm  12 42 01.846322 +23 32 33.77521
 2018-Nov-28 16:13 Nm  12 42 01.866898 +23 32 33.75287
 2018-Nov-28 16:14 Nm  12 42 01.887471 +23 32 33.73053
 2018-Nov-28 16:15 Cm  12 42 01.908043 +23 32 33.70819
 2018-Nov-28 16:16 Cm  12 42 01.928614 +23 32 33.68583
 2018-Nov-28 16:17 Cm  12 42 01.949183 +23 32 33.66347
 2018-Nov-28 16:18 Cm  12 42 01.969751 +23 32 33.64111
 2018-Nov-28 16:19 Cm  12 42 01.990317 +23 32 33.61873
 2018-Nov-28 16:20 Cm  12 42 02.010881 +23 32 33.59635
